CHINASAT 12 (ZX 12)     
1 39017U 12067A   24142.11999387 -.00000187  00000+0  00000+0 0  9991
2 39017   0.0158  44.0563 0003298   8.7297 317.1583  1.00273030 42126
EUTELSAT 70B            
1 39020U 12069A   24141.54407639 -.00000025  00000+0  00000+0 0  9998
2 39020   0.0644 358.2139 0003919  52.0005  94.8340  1.00270943 41914
YAMAL 402               
1 39022U 12070A   24141.54094358  .00000104  00000+0  00000+0 0  9999
2 39022   0.0305 103.3787 0003952 313.3365  71.6094  1.00272603 42002
SKYNET 5D               
1 39034U 12075A   24141.86160427  .00000118  00000+0  00000+0 0  9998
2 39034   0.0676 352.5904 0003786  70.2899 179.0514  1.00270934 41926
MEXSAT 3                
1 39035U 12075B   24141.96924463 -.00000007  00000+0  00000+0 0  9996
2 39035   0.0183  37.1298 0002242   7.1880  68.9206  1.00271891 41889
TDRS 11                 
1 39070U 13004A   24142.13957396  .00000098  00000+0  00000+0 0  9998
2 39070   2.7356  10.7364 0006118  48.3052  56.2267  1.00277987 41399
AMAZONAS 3              
1 39078U 13006A   24142.21091330 -.00000263  00000+0  00000+0 0  9999
2 39078   0.0227 217.4835 0002066 227.9381 168.8341  1.00274338 41381
AZERSPACE 1             
1 39079U 13006B   24141.32618825  .00000151  00000+0  00000+0 0  9990
2 39079   0.0436 101.0731 0001785 338.9284 321.8925  1.00270103 41205
SBIRS GEO-2 (USA 241)   
1 39120U 13011A   24141.45089716 -.00000240  00000+0  00000+0 0  9998
2 39120   2.9324  46.7124 0001935   5.1139 311.0847  1.00271322 40981
EUTELSAT 117 WEST A     
1 39122U 13012A   24141.75622113  .00000006  00000+0  00000+0 0  9997
2 39122   0.0153 354.3860 0003004  69.2236 330.7278  1.00272548 40870
ANIK G1                 
1 39127U 13014A   24142.52231323 -.00000053  00000+0  00000+0 0  9992
2 39127   0.0200 319.8093 0001545  88.4415 272.1062  1.00270634 40652
CHINASAT 11 (ZX 11)     
1 39157U 13020A   24142.17202319 -.00000270  00000+0  00000+0 0  9997
2 39157   0.0201  50.3617 0002417 298.1925  50.5918  1.00268235 40562
EUTELSAT 7B             
1 39163U 13022A   24141.34841137  .00000066  00000+0  00000+0 0  9993
2 39163   0.0815  32.2543 0005252 357.9563 340.7124  1.00273287 40363
WGS F5 (USA 243)        
1 39168U 13024A   24141.71021525 -.00000266  00000+0  00000+0 0  9995
2 39168   0.0197 307.9750 0000196 114.7658  19.2887  1.00269289 40236
SES-6                   
1 39172U 13026A   24142.30929345 -.00000241  00000+0  00000+0 0  9998
2 39172   0.0213 351.3269 0002200  59.9855 258.9825  1.00271439 40127
IRNSS-1A                
1 39199U 13034A   24140.89673273  .00000088  00000+0  00000+0 0  9992
2 39199  34.0168  74.8657 0018331 184.0827 356.9002  1.00275794 39763
MUOS-2                  
1 39206U 13036A   24141.79008023  .00000082  00000+0  00000+0 0  9992
2 39206   3.5831  40.1876 0050248 179.3697 126.7292  1.00270630 39706
ALPHASAT                
1 39215U 13038A   24142.04285517  .00000152  00000+0  00000+0 0  9996
2 39215   2.8894   7.7147 0002177  41.5983 230.1080  1.00275285 39675
INSAT-3D                
1 39216U 13038B   24141.90372485 -.00000136  00000+0  00000+0 0  9995
2 39216   0.0750  93.6295 0000705 215.0330 337.7891  1.00270181 39702
WGS F6 (USA 244)        
1 39222U 13041A   24142.50813198  .00000110  00000+0  00000+0 0  9995
2 39222   0.0171 304.0695 0000246 116.7376 226.5648  1.00268235 39472
ES'HAIL 1               
1 39233U 13044A   24142.25083935  .00000163  00000+0  00000+0 0  9998
2 39233   0.0515 351.3322 0002228  66.7871 297.0832  1.00275514 39313
GSAT-7                  
1 39234U 13044B   24142.23660803 -.00000057  00000+0  00000+0 0  9995
2 39234   0.1014  93.8155 0005817 190.9808 113.7433  1.00272311 39311
AMOS-4                  
1 39237U 13045A   24142.09632685  .00000027  00000+0  00000+0 0  9996
2 39237   0.0476 106.2516 0002349 283.9102 308.7287  1.00271569 39308
AEHF-3 (USA 246)        
1 39256U 13050A   24141.77341157  .00000153  00000+0  00000+0 0  9998
2 39256   3.4100  72.9909 0045949 181.6813 107.7091  1.00277476 39089
ASTRA 2E                
1 39285U 13056A   24141.53563521  .00000168  00000+0  00000+0 0  9997
2 39285   0.0571 352.4651 0002535  60.0588  47.4679  1.00269527 38998
FM-6                    
1 39360U 13058A   24141.97479647  .00000003  00000+0  00000+0 0  9994
2 39360   0.0176 312.1103 0000581 310.6671 211.1067  1.00269948 38756
RADUGA-1M 3             
1 39375U 13062A   24142.10955115  .00000174  00000+0  00000+0 0  9999
2 39375   4.0247  81.6103 0002502 199.1948  32.8837  1.00273073 38538
SES-8                   
1 39460U 13071A   24142.55099267 -.00000249  00000+0  00000+0 0  9994
2 39460   0.0168 295.6923 0003024 140.8914  96.4691  1.00271722 38289
INMARSAT 5-F1           
1 39476U 13073A   24142.09632685  .00000047  00000+0  00000+0 0  9994
2 39476   0.0191 318.1894 0000719 147.8013 230.5011  1.00272804 38330
TKSAT-1 (TUPAC KATARI)  
1 39481U 13075A   24141.51266123 -.00000176  00000+0  00000+0 0  9992
2 39481   0.0215  73.8768 0002762 331.0458 291.0772  1.00268794 38258
EXPRESS-AM5             
1 39487U 13077A   24142.20188296 -.00000260  00000+0  00000+0 0  9995
2 39487   0.0178 301.1324 0000230  41.7857 109.1397  1.00273202 38749
GSAT-14                 
1 39498U 14001A   24142.33200637 -.00000057  00000+0  00000+0 0  9997
2 39498   0.0300  67.6806 0001779 234.5113 130.7846  1.00270557 37998
THAICOM 6               
1 39500U 14002A   24141.85066556 -.00000101  00000+0  00000+0 0  9998
2 39500   0.0223 110.8394 0002843   0.5780 152.2910  1.00269818 37925
TDRS 12                 
1 39504U 14004A   24141.45028800 -.00000254  00000+0  00000+0 0  9999
2 39504   3.5529   2.7549 0002567 190.0465 166.9695  1.00275231 36674
ABS-2                   
1 39508U 14006A   24141.79285522 -.00000067  00000+0  00000+0 0  9990
2 39508   0.0434  93.7544 0003656 325.8973 179.6442  1.00271820 37720
ATHENA-FIDUS            
1 39509U 14006B   24141.82202069  .00000173  00000+0  00000+0 0  9997
2 39509   0.0127 316.1980 0001571 124.6753 131.7997  1.00272880 37902
TURKSAT 4A              
1 39522U 14007A   24141.27202208  .00000163  00000+0  00000+0 0  9996
2 39522   0.0146 271.1376 0001119  91.9446  15.2716  1.00273861 37376
EXPRESS-AT1             
1 39612U 14010A   24141.93591222  .00000097  00000+0  00000+0 0  9996
2 39612   0.0141 285.5564 0000499  64.5522 281.9078  1.00273366 37452
EXPRESS-AT2             
1 39613U 14010B   24141.87787196 -.00000262  00000+0  00000+0 0  9992
2 39613   0.0151 280.4747 0000507  78.1722 336.2534  1.00273420 37287
AMAZONAS 4A             
1 39616U 14011A   24141.81924187 -.00000234  00000+0  00000+0 0  9992
2 39616   0.1068 110.4204 0003741 309.9036  39.5608  1.00274986 37276
ASTRA 5B                
1 39617U 14011B   24142.32199876  .00000157  00000+0  00000+0 0  9992
2 39617   0.0455 331.2573 0002421  70.4866 337.1449  1.00274497 37281
IRNSS-1B                
1 39635U 14017A   24140.89664571  .00000098  00000+0  00000+0 0  9991
2 39635  29.0384 253.3052 0023152 181.9831 180.4684  1.00274108 37192
LUCH-5V                 
1 39727U 14023A   24142.12147325 -.00000249  00000+0  00000+0 0  9990
2 39727   3.2307  76.1980 0001619  15.9193 285.5472  1.00276931554917
KAZSAT-3                
1 39728U 14023B   24141.80535515  .00000079  00000+0  00000+0 0  9997
2 39728   0.0089 334.1371 0000481 149.5245 103.6911  1.00272944 36844
EUTELSAT 3B             
1 39773U 14030A   24141.53050087  .00000038  00000+0  00000+0 0  9996
2 39773   0.0648 357.0959 0002310 107.4033 328.2247  1.00272266 36622
ASIASAT 8 (AMOS-7)      
1 40107U 14046A   24142.31651633 -.00000013  00000+0  00000+0 0  9991
2 40107   0.0213  85.5236 0002236 342.8970 281.0877  1.00271880 35913
ASIASAT 6               
1 40141U 14052A   24142.57176987 -.00000342  00000+0  00000+0 0  9993
2 40141   0.0313  74.5597 0000925 354.7501 136.1312  1.00270311 35579
OPTUS 10                
1 40146U 14054A   24142.27677208 -.00000127  00000+0  00000+0 0  9990
2 40146   0.0502 319.5931 0002770 118.4892  56.9637  1.00271099 35535
MEASAT-3B               
1 40147U 14054B   24142.12077708 -.00000222  00000+0  00000+0 0  9990
2 40147   0.0435  38.2630 0003250  34.0747 301.9067  1.00269056 35583
LUCH (OLYMP-K 1)        
1 40258U 14058A   24142.31373161 -.00000122  00000+0  00000+0 0  9999
2 40258   0.1005  90.2211 0001131 321.6171 282.4343  1.00268149 35341
HIMAWARI-8              
1 40267U 14060A   24142.20188296 -.00000255  00000+0  00000+0 0  9990
2 40267   0.0497 137.6707 0001008 308.5918   6.4117  1.00273562 35277
IRNSS-1C                
1 40269U 14061A   24142.54738029 -.00000140  00000+0  00000+0 0  9998
2 40269   4.6050 105.4019 0020814   1.3838  53.0192  1.00270517 35243
INTELSAT 30 (IS-30)     
1 40271U 14062A   24141.58614090 -.00000133  00000+0  00000+0 0  9998
2 40271   0.0105 334.9806 0001594  11.6840   8.0260  1.00272066 35169
ARSAT 1                 
1 40272U 14062B   24142.22201939 -.00000240  00000+0  00000+0 0  9994
2 40272   0.0551  83.8287 0001766 325.4198 198.2363  1.00271780 35293
EXPRESS-AM6             
1 40277U 14064A   24142.10188399  .00000117  00000+0  00000+0 0  9994
2 40277   0.0160 291.8518 0000747 162.5454 234.5341  1.00271829 35075
GSAT-16                 
1 40332U 14078A   24142.54298396  .00000105  00000+0  00000+0 0  9995
2 40332   0.1113  94.8151 0007668 346.5863  48.8272  1.00272363 34675
DIRECTV 14              
1 40333U 14078B   24142.21230101 -.00000106  00000+0  00000+0 0  9992
2 40333   0.0105 304.2108 0000481 178.2453  94.0846  1.00273021 34657
YAMAL 401               
1 40345U 14082A   24141.99632639 -.00000209  00000+0  00000+0 0  9990
2 40345   0.0182 311.4150 0000750 127.8575 248.5149  1.00271850 34814
ASTRA 2G                
1 40364U 14089A   24142.32286899  .00000170  00000+0  00000+0 0  9995
2 40364   0.0504  23.3331 0005146  38.6752 321.8894  1.00271339 34435
